station_id,phase_index,phase_time,phase_score,phase_type,dt_s,phase_amplitude,event_index,gamma_score,time,polarity,h3dd_event_index,magnitude
SM09,14164,2024-04-03T00:02:22.130000,0.424,P,0.01,0.04221,-1,-1.0,2024-04-03 00:02:22.130,x,-1,
C024,14312,2024-04-03T00:02:24.090000,0.358,S,0.01,0.01855,10330,0.0011200119261614,2024-04-03 00:02:24.090,x,180,5.359069082636322
B138,14417,2024-04-03T00:02:24.220000,0.395,S,0.01,0.01851,10330,0.0118442866500036,2024-04-03 00:02:24.220,x,180,5.350216801978935
SM09,14379,2024-04-03T00:02:24.280000,0.42,S,0.01,0.04221,-1,-1.0,2024-04-03 00:02:24.280,x,-1,
E077,14585,2024-04-03T00:02:26.250000,0.372,S,0.01,0.006057,-1,-1.0,2024-04-03 00:02:26.250,x,-1,
SM09,14970,2024-04-03T00:02:30.190000,0.362,P,0.01,0.05664,10331,0.0002169605942676,2024-04-03 00:02:30.190,x,181,4.986999422172105
ESL,15070,2024-04-03T00:02:30.970000,0.617,P,0.01,0.0422,-1,-1.0,2024-04-03 00:02:30.970,x,-1,
E077,15236,2024-04-03T00:02:32.760000,0.491,P,0.01,0.02967,10331,0.0002339882414776,2024-04-03 00:02:32.760,x,181,4.42218058037383
LATB,15511,2024-04-03T00:02:35.118000,0.537,P,0.01,0.001831,-1,-1.0,2024-04-03 00:02:35.118,x,-1,
SM39,15469,2024-04-03T00:02:35.140000,0.55,S,0.01,0.07415,10331,0.0086622309318991,2024-04-03 00:02:35.140,x,181,5.228303695875811
SM09,15507,2024-04-03T00:02:35.560000,0.332,S,0.01,0.05416,10331,0.01407484006987,2024-04-03 00:02:35.560,x,181,4.986999422172105
B215,15426,2024-04-03T00:02:35.580000,0.553,P,0.01,0.01743,10331,0.0136340775989121,2024-04-03 00:02:35.580,U,181,4.807785119654661
WPL,15646,2024-04-03T00:02:36.660000,0.333,P,0.01,0.004561,10331,0.0100067624922845,2024-04-03 00:02:36.660,D,181,4.657867688885933
B189,15676,2024-04-03T00:02:37.670000,0.532,P,0.01,0.003911,10331,0.0070042882588202,2024-04-03 00:02:37.670,U,181,4.687216550351069
E077,15899,2024-04-03T00:02:39.390000,0.658,S,0.01,0.02967,10331,0.01170535558429,2024-04-03 00:02:39.390,x,181,4.42218058037383
B045,15923,2024-04-03T00:02:39.640000,0.36,P,0.01,0.003605,10331,0.0146653376935415,2024-04-03 00:02:39.640,D,181,4.812276920805123
B071,15885,2024-04-03T00:02:39.650000,0.407,P,0.01,0.003612,10331,0.0076113520044639,2024-04-03 00:02:39.650,D,181,4.865894255420271
B078,16028,2024-04-03T00:02:40.610000,0.364,P,0.01,0.003337,10331,0.0132784919080246,2024-04-03 00:02:40.610,U,181,4.840348865746492
YHNB,16079,2024-04-03T00:02:40.798000,0.327,P,0.01,0.0009468,-1,-1.0,2024-04-03 00:02:40.798,x,-1,
B138,16257,2024-04-03T00:02:42.620000,0.305,P,0.01,0.00719,10331,0.0054579367170941,2024-04-03 00:02:42.620,U,181,5.302388087225419
YHNB,16337,2024-04-03T00:02:43.378000,0.464,S,0.01,0.0009468,10331,0.0146741120233978,2024-04-03 00:02:43.378,x,181,4.650921331098961
B215,16266,2024-04-03T00:02:43.980000,0.395,S,0.01,0.01743,10331,0.0120387167904071,2024-04-03 00:02:43.980,x,181,4.807785119654661
SM39,16438,2024-04-03T00:02:44.830000,0.63,P,0.01,0.06178,-1,-1.0,2024-04-03 00:02:44.830,x,-1,
SM02,16329,2024-04-03T00:02:44.930000,0.715,P,0.01,0.02222,-1,-1.0,2024-04-03 00:02:44.930,x,-1,
SM06,16568,2024-04-03T00:02:45.780000,0.681,P,0.01,0.01978,-1,-1.0,2024-04-03 00:02:45.780,x,-1,
ESL,16744,2024-04-03T00:02:47.710000,0.76,P,0.01,0.02952,-1,-1.0,2024-04-03 00:02:47.710,x,-1,
SM39,16843,2024-04-03T00:02:48.880000,0.411,S,0.01,0.06178,-1,-1.0,2024-04-03 00:02:48.880,x,-1,
B078,17466,2024-04-03T00:02:54.990000,0.356,S,0.01,0.003567,-1,-1.0,2024-04-03 00:02:54.990,x,-1,
B138,17809,2024-04-03T00:02:58.140000,0.463,S,0.01,0.009266,10331,0.0153723877462834,2024-04-03 00:02:58.140,x,181,5.302388087225419
SM09,17775,2024-04-03T00:02:58.240000,0.447,P,0.01,0.0597,-1,-1.0,2024-04-03 00:02:58.240,x,-1,
C024,17767,2024-04-03T00:02:58.640000,0.327,S,0.01,0.01003,10331,0.0122488924374063,2024-04-03 00:02:58.640,x,181,5.233651751537964
ESL,17974,2024-04-03T00:03:00.010000,0.415,P,0.01,0.05335,-1,-1.0,2024-04-03 00:03:00.010,x,-1,
ALS,17959,2024-04-03T00:03:00.750000,0.602,S,0.01,0.003872,-1,-1.0,2024-04-03 00:03:00.750,x,-1,
SM02,18002,2024-04-03T00:03:01.660000,0.545,S,0.01,0.05255,-1,-1.0,2024-04-03 00:03:01.660,x,-1,
WUSB,18381,2024-04-03T00:03:03.818000,0.405,P,0.01,0.0009885,-1,-1.0,2024-04-03 00:03:03.818,x,-1,
ESL,18472,2024-04-03T00:03:04.990000,0.528,S,0.01,0.05335,-1,-1.0,2024-04-03 00:03:04.990,x,-1,
SM09,19166,2024-04-03T00:03:12.150000,0.401,P,0.01,0.03095,-1,-1.0,2024-04-03 00:03:12.150,x,-1,
SM02,20092,2024-04-03T00:03:22.560000,0.345,P,0.01,0.02066,-1,-1.0,2024-04-03 00:03:22.560,x,-1,
SM06,20292,2024-04-03T00:03:23.020000,0.59,P,0.01,0.02664,-1,-1.0,2024-04-03 00:03:23.020,x,-1,
B045,20262,2024-04-03T00:03:23.030000,0.329,S,0.01,0.003238,-1,-1.0,2024-04-03 00:03:23.030,x,-1,
SM39,20638,2024-04-03T00:03:26.830000,0.656,P,0.01,0.0743,-1,-1.0,2024-04-03 00:03:26.830,x,-1,
SM09,20644,2024-04-03T00:03:26.930000,0.667,P,0.01,0.05402,-1,-1.0,2024-04-03 00:03:26.930,x,-1,
SM06,20800,2024-04-03T00:03:28.100000,0.327,S,0.01,0.02643,-1,-1.0,2024-04-03 00:03:28.100,x,-1,
HOPB,21097,2024-04-03T00:03:30.973000,0.405,S,0.01,0.001345,-1,-1.0,2024-04-03 00:03:30.973,x,-1,
SM09,21055,2024-04-03T00:03:31.040000,0.524,S,0.01,0.05402,-1,-1.0,2024-04-03 00:03:31.040,x,-1,
E077,21225,2024-04-03T00:03:32.650000,0.412,P,0.01,0.009706,-1,-1.0,2024-04-03 00:03:32.650,x,-1,
WPL,22326,2024-04-03T00:03:43.460000,0.338,S,0.01,0.00256,-1,-1.0,2024-04-03 00:03:43.460,x,-1,
B215,22432,2024-04-03T00:03:45.640000,0.393,S,0.01,0.00523,-1,-1.0,2024-04-03 00:03:45.640,x,-1,
SM39,23264,2024-04-03T00:03:53.090000,0.525,P,0.01,0.06449,10332,0.0002169605942676,2024-04-03 00:03:53.090,x,182,5.229469185305299
SM06,23304,2024-04-03T00:03:53.140000,0.781,P,0.01,0.02761,10332,0.0002339882414776,2024-04-03 00:03:53.140,x,182,4.837561704672917
HWA,23316,2024-04-03T00:03:53.160000,0.323,P,0.01,0.001873,10332,0.0086622309318991,2024-04-03 00:03:53.160,D,182,4.34520385749997
SM09,23268,2024-04-03T00:03:53.170000,0.589,P,0.01,0.03539,10332,0.01407484006987,2024-04-03 00:03:53.170,x,182,4.796895519578644
SM02,23153,2024-04-03T00:03:53.170000,0.857,P,0.01,0.02855,10332,0.0136340775989121,2024-04-03 00:03:53.170,x,182,4.794015632725874
ESL,23409,2024-04-03T00:03:54.360000,0.719,P,0.01,0.05032,10332,0.0100067624922845,2024-04-03 00:03:54.360,x,182,4.538448930155007
SM06,23727,2024-04-03T00:03:57.370000,0.361,S,0.01,0.01115,-1,-1.0,2024-04-03 00:03:57.370,x,-1,
SM09,23767,2024-04-03T00:03:58.160000,0.479,S,0.01,0.03539,10332,0.0070042882588202,2024-04-03 00:03:58.160,x,182,4.796895519578644
SM06,23813,2024-04-03T00:03:58.230000,0.423,S,0.01,0.02761,10332,0.01170535558429,2024-04-03 00:03:58.230,x,182,4.837561704672917
ESL,24054,2024-04-03T00:04:00.810000,0.322,S,0.01,0.05032,10332,0.0146653376935415,2024-04-03 00:04:00.810,x,182,4.538448930155007
EGC,58,2024-04-03T00:04:02.580000,0.519,S,0.01,0.05612,10332,0.0076113520044639,2024-04-03 00:04:02.580,x,182,4.851366073647283
WPL,24978,2024-04-03T00:04:09.980000,0.392,S,0.01,0.003032,10332,0.0132784919080246,2024-04-03 00:04:09.980,x,182,4.502944146667444
B189,24916,2024-04-03T00:04:10.070000,0.373,P,0.01,0.0023,-1,-1.0,2024-04-03 00:04:10.070,x,-1,
SM02,24859,2024-04-03T00:04:10.230000,0.405,P,0.01,0.01816,-1,-1.0,2024-04-03 00:04:10.230,x,-1,
B148,24955,2024-04-03T00:04:10.630000,0.31,S,0.01,0.006058,10332,0.0054579367170941,2024-04-03 00:04:10.630,x,182,4.741307866524712
HOPB,25224,2024-04-03T00:04:12.243000,0.421,P,0.01,0.000984,-1,-1.0,2024-04-03 00:04:12.243,x,-1,
B215,25151,2024-04-03T00:04:12.830000,0.31,S,0.01,0.005171,10332,0.0146741120233978,2024-04-03 00:04:12.830,x,182,4.58412463934865
YUS,25319,2024-04-03T00:04:13.330000,0.576,S,0.01,0.0112,10332,0.0120387167904071,2024-04-03 00:04:13.330,x,182,5.124377432022804
SM02,25338,2024-04-03T00:04:15.020000,0.354,S,0.01,0.01814,-1,-1.0,2024-04-03 00:04:15.020,x,-1,
ALS,25566,2024-04-03T00:04:16.820000,0.346,S,0.01,0.004158,10332,0.0153723877462834,2024-04-03 00:04:16.820,x,182,4.940329946093075
HOPB,25772,2024-04-03T00:04:17.723000,0.383,S,0.01,0.0009088,-1,-1.0,2024-04-03 00:04:17.723,x,-1,
SM09,27262,2024-04-03T00:04:33.110000,0.48,P,0.01,0.01896,-1,-1.0,2024-04-03 00:04:33.110,x,-1,
SM06,27390,2024-04-03T00:04:34.000000,0.349,P,0.01,0.01228,-1,-1.0,2024-04-03 00:04:34.000,x,-1,
EGC,3450,2024-04-03T00:04:36.500000,0.339,P,0.01,0.01779,-1,-1.0,2024-04-03 00:04:36.500,x,-1,
ESL,27639,2024-04-03T00:04:36.660000,0.4,P,0.01,0.02124,-1,-1.0,2024-04-03 00:04:36.660,x,-1,
SM09,27620,2024-04-03T00:04:36.690000,0.321,S,0.01,0.01795,-1,-1.0,2024-04-03 00:04:36.690,x,-1,
SM06,27786,2024-04-03T00:04:37.960000,0.668,S,0.01,0.01228,-1,-1.0,2024-04-03 00:04:37.960,x,-1,
ESL,28075,2024-04-03T00:04:41.020000,0.539,S,0.01,0.02124,-1,-1.0,2024-04-03 00:04:41.020,x,-1,
SM09,28799,2024-04-03T00:04:48.480000,0.828,P,0.01,0.08071,-1,-1.0,2024-04-03 00:04:48.480,x,-1,
SM02,28707,2024-04-03T00:04:48.710000,0.42,P,0.01,0.02651,-1,-1.0,2024-04-03 00:04:48.710,x,-1,
HOPB,29153,2024-04-03T00:04:51.533000,0.733,P,0.01,0.001322,10333,0.0002169605942676,2024-04-03 00:04:51.533,U,183,4.784375538750118
SM39,29120,2024-04-03T00:04:51.650000,0.355,P,0.01,0.04069,10333,0.0002339882414776,2024-04-03 00:04:51.650,x,183,4.946972833953522
SM06,29278,2024-04-03T00:04:52.880000,0.311,P,0.01,0.01476,10333,0.0086622309318991,2024-04-03 00:04:52.880,x,183,4.653011088914761
NNSH,29404,2024-04-03T00:04:54.040000,0.394,P,0.01,0.0008297,10333,0.01407484006987,2024-04-03 00:04:54.040,D,183,3.9430463158615767
E077,29397,2024-04-03T00:04:54.370000,0.595,P,0.01,0.01391,10333,0.0136340775989121,2024-04-03 00:04:54.370,x,183,4.183378633304679
TDCB,29579,2024-04-03T00:04:55.798000,0.566,P,0.01,0.0006345,10333,0.0100067624922845,2024-04-03 00:04:55.798,D,183,3.889189075256741
E023,29462,2024-04-03T00:04:56.190000,0.795,P,0.01,0.007141,10333,0.0070042882588202,2024-04-03 00:04:56.190,D,183,4.465896587622639
WUSB,29632,2024-04-03T00:04:56.328000,0.483,P,0.01,0.0009389,10333,0.01170535558429,2024-04-03 00:04:56.328,U,183,4.705975642339418
HOPB,29671,2024-04-03T00:04:56.713000,0.718,S,0.01,0.001322,10333,0.0146653376935415,2024-04-03 00:04:56.713,x,183,4.784375538750118
F002,19098,2024-04-03T00:04:56.980000,0.311,P,0.01,0.003738,10333,0.0076113520044639,2024-04-03 00:04:56.980,x,183,4.368430472865371
YHNB,29699,2024-04-03T00:04:56.998000,0.767,P,0.01,0.0009472,10333,0.0132784919080246,2024-04-03 00:04:56.998,D,183,4.693002077496573
E037,29704,2024-04-03T00:04:57.080000,0.75,P,0.01,0.006729,10333,0.0054579367170941,2024-04-03 00:04:57.080,x,183,4.904061267431826
B215,29588,2024-04-03T00:04:57.200000,0.799,P,0.01,0.0149,10333,0.0146741120233978,2024-04-03 00:04:57.200,D,183,4.756237903176183
E004,29700,2024-04-03T00:04:57.300000,0.33,P,0.01,0.01131,10333,0.0120387167904071,2024-04-03 00:04:57.300,D,183,5.0995858926241695
GWUB,29801,2024-04-03T00:04:58.010000,0.649,P,0.01,0.0009066,10333,0.0153723877462834,2024-04-03 00:04:58.010,D,183,4.407611205805875
WPL,29813,2024-04-03T00:04:58.330000,0.704,P,0.01,0.004384,10333,0.0122488924374063,2024-04-03 00:04:58.330,U,183,4.259715330147791
SM06,29836,2024-04-03T00:04:58.460000,0.532,S,0.01,0.01476,10333,0.0076015157154156,2024-04-03 00:04:58.460,x,183,4.653011088914761
HGSD,29982,2024-04-03T00:04:59.820000,0.3,P,0.01,0.002024,10333,0.0097407668171307,2024-04-03 00:04:59.820,U,183,4.938876486494776
B045,30086,2024-04-03T00:05:01.270000,0.398,P,0.01,0.003283,10333,0.0099897432690351,2024-04-03 00:05:01.270,U,183,4.561067319257398
B068,30164,2024-04-03T00:05:01.970000,0.57,P,0.01,0.002814,10333,0.0091099315327807,2024-04-03 00:05:01.970,U,183,4.728928014917797
YUS,30194,2024-04-03T00:05:02.080000,0.488,P,0.01,0.01147,10333,0.0076100022611216,2024-04-03 00:05:02.080,x,183,5.0267326030543895
E023,30259,2024-04-03T00:05:04.160000,0.323,S,0.01,0.008194,10333,0.0092322171992294,2024-04-03 00:05:04.160,x,183,4.465896587622639
YHNB,30522,2024-04-03T00:05:05.228000,0.458,S,0.01,0.0009472,10333,0.0070278911550951,2024-04-03 00:05:05.228,x,183,4.693002077496573
C024,30428,2024-04-03T00:05:05.250000,0.62,P,0.01,0.005199,10333,0.0079063628285707,2024-04-03 00:05:05.250,x,183,4.893743563669038
B215,30471,2024-04-03T00:05:06.030000,0.367,S,0.01,0.0149,10333,0.001102959241682,2024-04-03 00:05:06.030,x,183,4.756237903176183
WPL,30737,2024-04-03T00:05:07.570000,0.517,S,0.01,0.003431,-1,-1.0,2024-04-03 00:05:07.570,x,-1,
SM09,31336,2024-04-03T00:05:13.850000,0.345,P,0.01,0.02656,-1,-1.0,2024-04-03 00:05:13.850,x,-1,
SM02,31230,2024-04-03T00:05:13.940000,0.442,P,0.01,0.02,-1,-1.0,2024-04-03 00:05:13.940,x,-1,
B071,31350,2024-04-03T00:05:14.300000,0.472,S,0.01,0.004611,10333,0.0046081030686588,2024-04-03 00:05:14.300,x,183,4.5752152879436
SM06,31433,2024-04-03T00:05:14.430000,0.884,P,0.01,0.02566,-1,-1.0,2024-04-03 00:05:14.430,x,-1,
B068,31420,2024-04-03T00:05:14.530000,0.314,S,0.01,0.002255,10333,0.0091608563849411,2024-04-03 00:05:14.530,x,183,4.728928014917797
ESL,31502,2024-04-03T00:05:15.290000,0.705,P,0.01,0.04366,-1,-1.0,2024-04-03 00:05:15.290,x,-1,
EGC,7384,2024-04-03T00:05:15.840000,0.331,P,0.01,0.02281,-1,-1.0,2024-04-03 00:05:15.840,x,-1,
B078,31578,2024-04-03T00:05:16.110000,0.365,S,0.01,0.004125,-1,-1.0,2024-04-03 00:05:16.110,x,-1,
F002,21140,2024-04-03T00:05:17.400000,0.45,P,0.01,0.008991,-1,-1.0,2024-04-03 00:05:17.400,x,-1,
ESL,31814,2024-04-03T00:05:18.410000,0.554,S,0.01,0.04366,-1,-1.0,2024-04-03 00:05:18.410,x,-1,
SM06,31846,2024-04-03T00:05:18.560000,0.373,S,0.01,0.02566,-1,-1.0,2024-04-03 00:05:18.560,x,-1,
B138,31886,2024-04-03T00:05:18.910000,0.592,S,0.01,0.01677,10333,0.0011200119261614,2024-04-03 00:05:18.910,x,183,5.1270864886753085
B090,31847,2024-04-03T00:05:19.720000,0.485,S,0.01,0.006062,10333,0.0118442866500036,2024-04-03 00:05:19.720,x,183,4.869419930199339
C024,31891,2024-04-03T00:05:19.880000,0.604,S,0.01,0.008109,10333,0.0077121947032055,2024-04-03 00:05:19.880,x,183,4.893743563669038
ALS,32102,2024-04-03T00:05:22.180000,0.367,S,0.01,0.004105,-1,-1.0,2024-04-03 00:05:22.180,x,-1,
SM09,32204,2024-04-03T00:05:22.530000,0.424,P,0.01,0.05039,-1,-1.0,2024-04-03 00:05:22.530,x,-1,
F002,21661,2024-04-03T00:05:22.610000,0.469,S,0.01,0.008991,-1,-1.0,2024-04-03 00:05:22.610,x,-1,
E077,32994,2024-04-03T00:05:30.340000,0.356,S,0.01,0.004769,-1,-1.0,2024-04-03 00:05:30.340,x,-1,
SM06,33230,2024-04-03T00:05:32.400000,0.68,S,0.01,0.02575,-1,-1.0,2024-04-03 00:05:32.400,x,-1,
SM09,34294,2024-04-03T00:05:43.430000,0.538,S,0.01,0.04211,-1,-1.0,2024-04-03 00:05:43.430,x,-1,
EOS4,34542,2024-04-03T00:05:45.420000,0.732,P,0.01,0.0004375,-1,-1.0,2024-04-03 00:05:45.420,x,-1,
SM02,34478,2024-04-03T00:05:46.420000,0.66,P,0.01,0.02143,-1,-1.0,2024-04-03 00:05:46.420,x,-1,
EOS4,34668,2024-04-03T00:05:46.680000,0.499,S,0.01,0.0004375,-1,-1.0,2024-04-03 00:05:46.680,x,-1,
E077,35034,2024-04-03T00:05:50.740000,0.312,P,0.01,0.004896,-1,-1.0,2024-04-03 00:05:50.740,x,-1,
SM39,35296,2024-04-03T00:05:53.410000,0.332,S,0.01,0.04805,-1,-1.0,2024-04-03 00:05:53.410,x,-1,
SM09,35299,2024-04-03T00:05:53.480000,0.404,S,0.01,0.03456,-1,-1.0,2024-04-03 00:05:53.480,x,-1,
B215,35245,2024-04-03T00:05:53.770000,0.354,P,0.01,0.004413,-1,-1.0,2024-04-03 00:05:53.770,x,-1,
E004,35365,2024-04-03T00:05:53.950000,0.48,P,0.01,0.006623,-1,-1.0,2024-04-03 00:05:53.950,x,-1,
E037,36618,2024-04-03T00:06:06.220000,0.409,S,0.01,0.005787,-1,-1.0,2024-04-03 00:06:06.220,x,-1,
E004,36598,2024-04-03T00:06:06.280000,0.583,S,0.01,0.005903,-1,-1.0,2024-04-03 00:06:06.280,x,-1,
SM06,36648,2024-04-03T00:06:06.580000,0.496,P,0.01,0.01278,-1,-1.0,2024-04-03 00:06:06.580,x,-1,
ESL,36668,2024-04-03T00:06:06.950000,0.446,P,0.01,0.021,-1,-1.0,2024-04-03 00:06:06.950,x,-1,
SM02,36569,2024-04-03T00:06:07.330000,0.428,P,0.01,0.01549,-1,-1.0,2024-04-03 00:06:07.330,x,-1,
ESL,36804,2024-04-03T00:06:08.310000,0.352,S,0.01,0.01838,-1,-1.0,2024-04-03 00:06:08.310,x,-1,
SM09,37086,2024-04-03T00:06:11.350000,0.426,S,0.01,0.02834,-1,-1.0,2024-04-03 00:06:11.350,x,-1,
HOPB,37790,2024-04-03T00:06:17.903000,0.693,P,0.01,0.001409,10334,0.0002169605942676,2024-04-03 00:06:17.903,D,184,4.3999165197875385
SM39,37868,2024-04-03T00:06:19.130000,0.883,P,0.01,0.08113,10334,0.0002339882414776,2024-04-03 00:06:19.130,U,184,4.632703783854803
SM09,37910,2024-04-03T00:06:19.590000,0.302,S,0.01,0.02982,-1,-1.0,2024-04-03 00:06:19.590,x,-1,
LATB,38224,2024-04-03T00:06:22.248000,0.312,P,0.01,0.0004789,10334,0.0086622309318991,2024-04-03 00:06:22.248,D,184,4.4244995691721805
HOPB,38248,2024-04-03T00:06:22.483000,0.481,S,0.01,0.001409,10334,0.01407484006987,2024-04-03 00:06:22.483,x,184,4.3999165197875385
E077,38246,2024-04-03T00:06:22.860000,0.682,P,0.01,0.01131,10334,0.0136340775989121,2024-04-03 00:06:22.860,x,184,4.537584682587597
E023,38213,2024-04-03T00:06:23.700000,0.424,P,0.01,0.007677,10334,0.0100067624922845,2024-04-03 00:06:23.700,U,184,4.453282000569034
E004,38388,2024-04-03T00:06:24.180000,0.521,P,0.01,0.005494,10334,0.0070042882588202,2024-04-03 00:06:24.180,U,184,4.846903255176606
SM39,38446,2024-04-03T00:06:24.910000,0.53,S,0.01,0.08113,10334,0.01170535558429,2024-04-03 00:06:24.910,x,184,4.632703783854803
SM09,38463,2024-04-03T00:06:25.120000,0.395,S,0.01,0.0457,10334,0.0146653376935415,2024-04-03 00:06:25.120,x,184,4.426651441942324
B215,38408,2024-04-03T00:06:25.400000,0.592,P,0.01,0.005185,10334,0.0076113520044639,2024-04-03 00:06:25.400,D,184,4.638788842991123
SM06,38727,2024-04-03T00:06:27.370000,0.449,S,0.01,0.02372,10334,0.0132784919080246,2024-04-03 00:06:27.370,x,184,4.5610525598456775
LATB,38927,2024-04-03T00:06:29.278000,0.393,S,0.01,0.0004789,10334,0.0054579367170941,2024-04-03 00:06:29.278,x,184,4.4244995691721805
E077,38987,2024-04-03T00:06:30.270000,0.584,S,0.01,0.01131,10334,0.0146741120233978,2024-04-03 00:06:30.270,x,184,4.537584682587597
E037,39322,2024-04-03T00:06:33.260000,0.348,S,0.01,0.01077,10334,0.0120387167904071,2024-04-03 00:06:33.260,x,184,4.911732977732919
B215,39389,2024-04-03T00:06:35.210000,0.384,S,0.01,0.008266,10334,0.0153723877462834,2024-04-03 00:06:35.210,x,184,4.638788842991123
SM09,39692,2024-04-03T00:06:37.410000,0.41,P,0.01,0.04704,-1,-1.0,2024-04-03 00:06:37.410,x,-1,
B189,40101,2024-04-03T00:06:41.920000,0.32,S,0.01,0.002243,10334,0.0122488924374063,2024-04-03 00:06:41.920,x,184,4.30002942230943
SM06,40311,2024-04-03T00:06:43.210000,0.471,S,0.01,0.01297,-1,-1.0,2024-04-03 00:06:43.210,x,-1,
B068,40672,2024-04-03T00:06:47.050000,0.388,S,0.01,0.002546,10334,0.0076015157154156,2024-04-03 00:06:47.050,x,184,4.617177997401524
C024,41204,2024-04-03T00:06:53.010000,0.448,S,0.01,0.004839,10334,0.0097407668171307,2024-04-03 00:06:53.010,x,184,4.837525480303735
SM02,41249,2024-04-03T00:06:54.130000,0.345,P,0.01,0.007571,-1,-1.0,2024-04-03 00:06:54.130,x,-1,
SM06,41404,2024-04-03T00:06:54.140000,0.885,P,0.01,0.01235,-1,-1.0,2024-04-03 00:06:54.140,x,-1,
SM06,41869,2024-04-03T00:06:58.790000,0.496,S,0.01,0.01007,-1,-1.0,2024-04-03 00:06:58.790,x,-1,
SM39,42753,2024-04-03T00:07:07.980000,0.946,P,0.01,0.2224,10335,0.0002169605942676,2024-04-03 00:07:07.980,x,185,4.124932347300144
SM09,42763,2024-04-03T00:07:08.120000,0.94,P,0.01,0.08903,10335,0.0002339882414776,2024-04-03 00:07:08.120,x,185,4.010705823169785
SM02,42650,2024-04-03T00:07:08.140000,0.921,P,0.01,0.03519,10335,0.0086622309318991,2024-04-03 00:07:08.140,x,185,3.6282829448096505
HWA,42826,2024-04-03T00:07:08.260000,0.341,P,0.01,0.0009663,10335,0.01407484006987,2024-04-03 00:07:08.260,U,185,3.1077319561315218
SM06,42887,2024-04-03T00:07:08.970000,0.808,P,0.01,0.01542,10335,0.0136340775989121,2024-04-03 00:07:08.970,x,185,3.4540844262607138
SM39,42920,2024-04-03T00:07:09.650000,0.898,S,0.01,0.1418,10335,0.0100067624922845,2024-04-03 00:07:09.650,x,185,4.124932347300144
SM02,42817,2024-04-03T00:07:09.810000,0.563,S,0.01,0.03519,10335,0.0070042882588202,2024-04-03 00:07:09.810,x,185,3.6282829448096505
SHUL,42991,2024-04-03T00:07:09.910000,0.343,P,0.01,0.0006152,10335,0.01170535558429,2024-04-03 00:07:09.910,U,185,3.353533642208377
SM09,42947,2024-04-03T00:07:09.960000,0.57,S,0.01,0.08903,10335,0.0146653376935415,2024-04-03 00:07:09.960,x,185,4.010705823169785
