station_id,phase_index,phase_time,phase_score,phase_type,dt_s,phase_amplitude,event_index,gamma_score,time,polarity,h3dd_event_index,magnitude
F059,8629149,2024-04-02T23:58:14.140000,0.698,P,0.01,2.325,10145,0.2906880416152007,2024-04-02 23:58:14.140,D,177,6.461644873872068
SM06,8629344,2024-04-02T23:58:14.200000,0.853,P,0.01,1.398,10145,0.3489691202432924,2024-04-02 23:58:14.200,U,177,6.54215412834857
SHUL,8629457,2024-04-02T23:58:14.570000,0.364,P,0.01,0.01508,10145,0.1165553832453612,2024-04-02 23:58:14.570,U,177,
HWA,8629467,2024-04-02T23:58:14.670000,0.443,P,0.01,0.0171,10145,0.1797505384510908,2024-04-02 23:58:14.670,U,177,
ESL,8629418,2024-04-02T23:58:14.710000,0.756,P,0.01,2.227,10145,0.3149203421463338,2024-04-02 23:58:14.710,D,177,6.40063804646609
SM02,8629361,2024-04-02T23:58:15.010000,0.813,P,0.01,1.13,10145,0.3266494168624215,2024-04-02 23:58:15.010,U,177,6.559730682122531
SM39,8629509,2024-04-02T23:58:15.180000,0.794,P,0.01,3.341,10145,0.3303127688937469,2024-04-02 23:58:15.180,U,177,7.008644636816216
EGC,8629521,2024-04-02T23:58:15.260000,0.448,P,0.01,2.719,10145,0.1593579976021681,2024-04-02 23:58:15.260,U,177,6.466763425220478
SM09,8629465,2024-04-02T23:58:15.260000,0.736,P,0.01,1.646,10145,0.3051316636294928,2024-04-02 23:58:15.260,U,177,6.770642517867564
F002,8629624,2024-04-02T23:58:16.960000,0.643,P,0.01,0.5277,10145,0.2147463901217404,2024-04-02 23:58:16.960,D,177,6.190117549626359
NACB,8629703,2024-04-02T23:58:17.038000,0.567,P,0.01,0.01951,10145,0.2236828749957274,2024-04-02 23:58:17.038,D,177,
SM39,8629798,2024-04-02T23:58:18.070000,0.436,S,0.01,3.341,10145,0.0825168877081396,2024-04-02 23:58:18.070,x,177,7.008644636816216
SM02,8629670,2024-04-02T23:58:18.100000,0.332,S,0.01,1.13,10145,0.1340942696834635,2024-04-02 23:58:18.100,x,177,6.559730682122531
EHYH,8629854,2024-04-02T23:58:18.540000,0.555,P,0.01,0.01501,10145,0.1982608477202446,2024-04-02 23:58:18.540,U,177,
HGSD,8629939,2024-04-02T23:58:19.390000,0.419,P,0.01,0.01431,10145,0.1068208546248673,2024-04-02 23:58:19.390,D,177,
WUSB,8629947,2024-04-02T23:58:19.478000,0.454,P,0.01,0.02372,10145,0.1809089146776891,2024-04-02 23:58:19.478,D,177,
YULB,8630004,2024-04-02T23:58:20.048000,0.68,P,0.01,0.005309,10145,0.1829424582613342,2024-04-02 23:58:20.048,U,177,
SSLB,8630159,2024-04-02T23:58:21.598000,0.408,P,0.01,0.007454,10145,0.1566339405801333,2024-04-02 23:58:21.598,U,177,
ECB,8630140,2024-04-02T23:58:21.640000,0.531,P,0.01,0.1933,10145,0.1926233803712986,2024-04-02 23:58:21.640,x,177,6.655675621085562
WPL,8629855,2024-04-02T23:58:21.820000,0.691,P,0.01,0.1563,10145,0.2606794745332089,2024-04-02 23:58:21.820,D,177,6.467757243749874
B148,8630072,2024-04-02T23:58:22.320000,0.713,P,0.01,0.2124,10145,0.2933926961462965,2024-04-02 23:58:22.320,D,177,6.545223254057618
SML,8630048,2024-04-02T23:58:22.600000,0.777,P,0.01,0.1529,10145,0.324443018545519,2024-04-02 23:58:22.600,U,177,6.97111683460416
E077,8630051,2024-04-02T23:58:22.680000,0.541,P,0.01,0.471,10145,0.2144135933519967,2024-04-02 23:58:22.680,x,177,6.975358830539978
F042,8630229,2024-04-02T23:58:22.840000,0.383,P,0.01,0.1284,10145,0.1006577776748061,2024-04-02 23:58:22.840,x,177,6.229279147608693
LATB,8630299,2024-04-02T23:58:22.998000,0.378,P,0.01,0.01674,10145,0.1368088789690592,2024-04-02 23:58:22.998,D,177,
B078,8630189,2024-04-02T23:58:23.250000,0.423,P,0.01,0.08719,10145,0.1705536214726235,2024-04-02 23:58:23.250,x,177,6.515342966688682
YUS,8630213,2024-04-02T23:58:23.610000,0.592,P,0.01,0.2715,10145,0.2462306050700178,2024-04-02 23:58:23.610,U,177,6.950598092940968
B189,8630124,2024-04-02T23:58:23.720000,0.836,P,0.01,0.1264,10145,0.3216029933200613,2024-04-02 23:58:23.720,U,177,6.406751508207686
EOS4,8630399,2024-04-02T23:58:23.990000,0.328,P,0.01,0.001489,10145,0.1369638761227475,2024-04-02 23:58:23.990,x,177,6.9460899486643655
G041,8630421,2024-04-02T23:58:24.500000,0.705,P,0.01,0.2188,10145,0.072604312799379,2024-04-02 23:58:24.500,U,177,6.293791448036888
ESA,8630465,2024-04-02T23:58:24.650000,0.404,P,0.01,0.01259,10145,0.1687078939695132,2024-04-02 23:58:24.650,U,177,
B071,8630037,2024-04-02T23:58:24.760000,0.674,P,0.01,0.1031,10145,0.2766767389912729,2024-04-02 23:58:24.760,U,177,6.507331900819003
ELD,8630299,2024-04-02T23:58:24.910000,0.438,P,0.01,0.001738,10145,0.0737109170394512,2024-04-02 23:58:24.910,U,177,5.829077592462392
CHK,8630475,2024-04-02T23:58:25.010000,0.681,P,0.01,0.1818,10145,0.284457166814383,2024-04-02 23:58:25.010,U,177,6.623151480641884
SYNB,8630400,2024-04-02T23:58:25.073000,0.545,P,0.01,0.004064,10145,0.1762129406983079,2024-04-02 23:58:25.073,U,177,
E023,8630553,2024-04-02T23:58:25.600000,0.46,P,0.01,0.2396,10145,0.185405019101804,2024-04-02 23:58:25.600,x,177,7.045386203952964
ALS,8629991,2024-04-02T23:58:25.750000,0.711,P,0.01,0.1097,10145,0.266915927901781,2024-04-02 23:58:25.750,U,177,6.822112326314749
NDS,8630577,2024-04-02T23:58:25.770000,0.405,P,0.01,0.01066,10145,0.1412838567237928,2024-04-02 23:58:25.770,D,177,
B215,8630387,2024-04-02T23:58:26.080000,0.436,P,0.01,0.3962,10145,0.1733671091835879,2024-04-02 23:58:26.080,D,177,7.064485734205039
EOS3,8630611,2024-04-02T23:58:26.110000,0.464,P,0.01,0.002078,10145,0.1206059401412608,2024-04-02 23:58:26.110,x,177,
SHUL,8630729,2024-04-02T23:58:27.290000,0.342,P,0.01,0.00622,-1,-1.0,2024-04-02 23:58:27.290,x,-1,
B068,8630713,2024-04-02T23:58:27.330000,0.449,P,0.01,0.09077,10145,1.5600481070161672e-05,2024-04-02 23:58:27.330,x,177,6.672520581936275
B090,8630711,2024-04-02T23:58:27.570000,0.671,P,0.01,0.08725,10145,0.1303394579264118,2024-04-02 23:58:27.570,U,177,6.851406749903974
B045,8630751,2024-04-02T23:58:27.840000,0.563,P,0.01,0.1804,10145,0.215759970917854,2024-04-02 23:58:27.840,D,177,7.23433867632602
C024,8630695,2024-04-02T23:58:28.000000,0.706,P,0.01,0.1806,10145,0.2205780289915832,2024-04-02 23:58:28.000,U,177,6.448030356639372
B138,8630783,2024-04-02T23:58:28.160000,0.7,P,0.01,0.1519,10145,0.2031550791378707,2024-04-02 23:58:28.160,x,177,6.541487174937227
WCKO,8630947,2024-04-02T23:58:29.470000,0.453,P,0.01,0.004535,10145,0.1994957746186319,2024-04-02 23:58:29.470,U,177,
LDU,8630953,2024-04-02T23:58:29.530000,0.333,P,0.01,0.0004947,10145,0.1343953936473726,2024-04-02 23:58:29.530,D,177,
TPUB,8630996,2024-04-02T23:58:29.968000,0.508,P,0.01,0.002717,10145,0.0137785550591416,2024-04-02 23:58:29.968,U,177,
SHUL,8633306,2024-04-02T23:58:53.060000,0.328,P,0.01,0.01572,-1,-1.0,2024-04-02 23:58:53.060,x,-1,
GWUB,8634646,2024-04-02T23:59:06.460000,0.408,S,0.01,0.01545,-1,-1.0,2024-04-02 23:59:06.460,x,-1,
SM39,8636317,2024-04-02T23:59:23.260000,0.559,P,0.01,0.7148,-1,-1.0,2024-04-02 23:59:23.260,x,-1,
SM09,8636285,2024-04-02T23:59:23.460000,0.682,P,0.01,0.2539,-1,-1.0,2024-04-02 23:59:23.460,x,-1,
SM02,8636220,2024-04-02T23:59:23.600000,0.392,P,0.01,0.1498,-1,-1.0,2024-04-02 23:59:23.600,x,-1,
SM06,8636310,2024-04-02T23:59:23.860000,0.703,P,0.01,0.4454,-1,-1.0,2024-04-02 23:59:23.860,x,-1,
SM39,8636581,2024-04-02T23:59:25.900000,0.5,S,0.01,0.7148,-1,-1.0,2024-04-02 23:59:25.900,x,-1,
SM06,8636623,2024-04-02T23:59:26.990000,0.534,S,0.01,0.4454,-1,-1.0,2024-04-02 23:59:26.990,x,-1,
ESL,8637202,2024-04-02T23:59:32.550000,0.523,P,0.01,0.113,-1,-1.0,2024-04-02 23:59:32.550,x,-1,
ELD,8639070,2024-04-02T23:59:52.620000,0.424,P,0.01,0.004627,-1,-1.0,2024-04-02 23:59:52.620,x,-1,
SM09,8639244,2024-04-02T23:59:53.050000,0.693,P,0.01,0.2173,-1,-1.0,2024-04-02 23:59:53.050,x,-1,
SM39,8639480,2024-04-02T23:59:54.890000,0.376,S,0.01,0.1625,-1,-1.0,2024-04-02 23:59:54.890,x,-1,
SM09,8639439,2024-04-02T23:59:55.000000,0.36,S,0.01,0.122,-1,-1.0,2024-04-02 23:59:55.000,x,-1,
SM09,1693,2024-04-03T00:00:17.420000,0.344,P,0.01,0.0647,-1,-1.0,2024-04-03 00:00:17.420,x,-1,
SM39,1761,2024-04-03T00:00:18.060000,0.864,P,0.01,0.3958,-1,-1.0,2024-04-03 00:00:18.060,x,-1,
SM09,1765,2024-04-03T00:00:18.140000,0.38,P,0.01,0.1091,-1,-1.0,2024-04-03 00:00:18.140,x,-1,
SM02,1656,2024-04-03T00:00:18.200000,0.671,P,0.01,0.06718,-1,-1.0,2024-04-03 00:00:18.200,x,-1,
E077,1867,2024-04-03T00:00:19.070000,0.303,S,0.01,0.01028,-1,-1.0,2024-04-03 00:00:19.070,x,-1,
SM09,1926,2024-04-03T00:00:19.750000,0.326,S,0.01,0.1091,-1,-1.0,2024-04-03 00:00:19.750,x,-1,
SM39,1931,2024-04-03T00:00:19.760000,0.905,S,0.01,0.3958,-1,-1.0,2024-04-03 00:00:19.760,x,-1,
SM02,1839,2024-04-03T00:00:20.030000,0.628,S,0.01,0.04105,-1,-1.0,2024-04-03 00:00:20.030,x,-1,
SM06,2139,2024-04-03T00:00:21.490000,0.344,S,0.01,0.0429,-1,-1.0,2024-04-03 00:00:21.490,x,-1,
SM06,2474,2024-04-03T00:00:24.840000,0.588,P,0.01,0.08059,4974,0.0162134348830735,2024-04-03 00:00:24.840,D,178,5.196558663482271
ESL,2463,2024-04-03T00:00:24.900000,0.957,P,0.01,0.111,4974,0.0427590757915135,2024-04-03 00:00:24.900,x,178,4.960138414587791
EGFH,2500,2024-04-03T00:00:25.000000,0.39,P,0.01,0.001065,4974,0.0202226537762556,2024-04-03 00:00:25.000,D,178,4.118841742931775
SM02,2405,2024-04-03T00:00:25.690000,0.632,P,0.01,0.06467,4974,0.0355620179367805,2024-04-03 00:00:25.690,x,178,5.247312405445177
SM39,2564,2024-04-03T00:00:26.090000,0.505,P,0.01,0.1426,4974,0.0015646272819777,2024-04-03 00:00:26.090,x,178,5.528004875481159
SM09,2620,2024-04-03T00:00:26.690000,0.566,P,0.01,0.08859,4974,0.0154574002899096,2024-04-03 00:00:26.690,x,178,5.467399332979776
ESL,2873,2024-04-03T00:00:29.000000,0.686,S,0.01,0.111,4974,0.0477916465334868,2024-04-03 00:00:29.000,x,178,4.960138414587791
WUSB,2947,2024-04-03T00:00:29.478000,0.689,P,0.01,0.00438,4974,0.0312184621960935,2024-04-03 00:00:29.478,D,178,
HGSD,3003,2024-04-03T00:00:30.030000,0.312,P,0.01,0.01354,-1,-1.0,2024-04-03 00:00:30.030,x,-1,
ECB,2930,2024-04-03T00:00:30.190000,0.605,P,0.01,0.03316,4974,0.0164332798556059,2024-04-03 00:00:30.190,D,178,5.5479485682969365
SM02,2980,2024-04-03T00:00:31.440000,0.44,S,0.01,0.06467,4974,0.0904020272383548,2024-04-03 00:00:31.440,x,178,5.247312405445177
TDCB,3147,2024-04-03T00:00:31.478000,0.378,P,0.01,0.002682,4974,0.166500373206575,2024-04-03 00:00:31.478,U,178,
WPL,3140,2024-04-03T00:00:31.600000,0.709,P,0.01,0.02504,4974,0.052259095313396,2024-04-03 00:00:31.600,U,178,5.209044041934467
SML,3126,2024-04-03T00:00:31.990000,0.598,P,0.01,0.02,4974,0.0986495727868219,2024-04-03 00:00:31.990,D,178,5.562163356379205
YUS,3246,2024-04-03T00:00:32.600000,0.592,P,0.01,0.1151,4974,0.0793528553764483,2024-04-03 00:00:32.600,U,178,5.880958309152149
SSLB,3326,2024-04-03T00:00:33.268000,0.439,P,0.01,0.002692,4974,0.068237377900553,2024-04-03 00:00:33.268,U,178,
CHK,3314,2024-04-03T00:00:33.350000,0.311,P,0.01,0.01971,4974,0.1178826517534837,2024-04-03 00:00:33.350,U,178,5.5774757633358565
B071,3363,2024-04-03T00:00:34.430000,0.366,P,0.01,0.01509,4974,0.116702112905471,2024-04-03 00:00:34.430,U,178,5.503970056799847
ALS,3358,2024-04-03T00:00:34.740000,0.721,P,0.01,0.01336,4974,0.0170694150059967,2024-04-03 00:00:34.740,U,178,5.738809844944569
B215,3457,2024-04-03T00:00:35.890000,0.705,P,0.01,0.01303,4974,0.1063411633206941,2024-04-03 00:00:35.890,D,178,5.482469098522682
B068,3665,2024-04-03T00:00:36.980000,0.435,P,0.01,0.01623,4974,0.0331702178854219,2024-04-03 00:00:36.980,U,178,5.7751975089445455
SM09,3691,2024-04-03T00:00:37.400000,0.372,P,0.01,0.1384,-1,-1.0,2024-04-03 00:00:37.400,x,-1,
ECB,3743,2024-04-03T00:00:38.320000,0.537,S,0.01,0.0406,4974,0.0600941714900072,2024-04-03 00:00:38.320,x,178,5.5479485682969365
SM09,3879,2024-04-03T00:00:39.280000,0.34,S,0.01,0.1384,-1,-1.0,2024-04-03 00:00:39.280,x,-1,
WPL,3998,2024-04-03T00:00:40.180000,0.502,S,0.01,0.02519,4974,0.1295535988256594,2024-04-03 00:00:40.180,x,178,5.209044041934467
B148,3970,2024-04-03T00:00:40.780000,0.43,S,0.01,0.05848,4974,0.120428047522358,2024-04-03 00:00:40.780,x,178,5.572477653906983
SM39,4039,2024-04-03T00:00:40.840000,0.615,P,0.01,0.3623,-1,-1.0,2024-04-03 00:00:40.840,x,-1,
SML,4050,2024-04-03T00:00:41.230000,0.31,S,0.01,0.03177,4974,0.1158846126782044,2024-04-03 00:00:41.230,x,178,5.562163356379205
YUS,4126,2024-04-03T00:00:41.400000,0.383,S,0.01,0.1151,4974,0.0189170242428773,2024-04-03 00:00:41.400,x,178,5.880958309152149
SM39,4203,2024-04-03T00:00:42.480000,0.466,S,0.01,0.3623,-1,-1.0,2024-04-03 00:00:42.480,x,-1,
B078,4314,2024-04-03T00:00:43.470000,0.784,S,0.01,0.0261,4974,0.0457362794263144,2024-04-03 00:00:43.470,x,178,5.43631359814808
CHK,4422,2024-04-03T00:00:44.430000,0.597,S,0.01,0.04747,4974,0.0639733356957461,2024-04-03 00:00:44.430,x,178,5.5774757633358565
ALS,4411,2024-04-03T00:00:45.270000,0.418,S,0.01,0.0277,4974,0.1411791307577514,2024-04-03 00:00:45.270,x,178,5.738809844944569
B071,4473,2024-04-03T00:00:45.530000,0.432,S,0.01,0.03188,4974,0.1060013796297599,2024-04-03 00:00:45.530,x,178,5.503970056799847
E023,4539,2024-04-03T00:00:46.960000,0.319,S,0.01,0.01353,4974,0.0445527261952445,2024-04-03 00:00:46.960,x,178,5.33973472618868
B215,4640,2024-04-03T00:00:47.720000,0.315,S,0.01,0.02334,4974,0.0014100690432667,2024-04-03 00:00:47.720,x,178,5.482469098522682
B090,4735,2024-04-03T00:00:48.600000,0.384,S,0.01,0.02565,4974,0.0820547213731788,2024-04-03 00:00:48.600,x,178,5.671491804906386
WPL,4868,2024-04-03T00:00:48.880000,0.333,P,0.01,0.008747,-1,-1.0,2024-04-03 00:00:48.880,x,-1,
C024,4872,2024-04-03T00:00:49.690000,0.681,S,0.01,0.04306,4974,0.0018432051577934,2024-04-03 00:00:49.690,x,178,5.589851472650606
HOPB,6277,2024-04-03T00:01:02.773000,0.402,P,0.01,0.003513,4975,0.0162134348830735,2024-04-03 00:01:02.773,D,179,4.768557132420621
SM09,6302,2024-04-03T00:01:03.510000,0.525,P,0.01,0.0671,4975,0.0427590757915135,2024-04-03 00:01:03.510,x,179,4.9486002171443255
HOPB,6741,2024-04-03T00:01:07.413000,0.422,S,0.01,0.003513,4975,0.0202226537762556,2024-04-03 00:01:07.413,x,179,4.768557132420621
YHNB,6831,2024-04-03T00:01:08.318000,0.697,P,0.01,0.002323,4975,0.0355620179367805,2024-04-03 00:01:08.318,U,179,
B215,6724,2024-04-03T00:01:08.560000,0.666,P,0.01,0.02352,4975,0.0015646272819777,2024-04-03 00:01:08.560,U,179,4.881503902372777
SM09,6819,2024-04-03T00:01:08.680000,0.559,S,0.01,0.0671,4975,0.0154574002899096,2024-04-03 00:01:08.680,x,179,4.9486002171443255
TDCB,6907,2024-04-03T00:01:09.078000,0.571,P,0.01,0.002111,4975,0.0477916465334868,2024-04-03 00:01:09.078,D,179,
SM06,7000,2024-04-03T00:01:10.100000,0.676,S,0.01,0.03296,4975,0.0312184621960935,2024-04-03 00:01:10.100,x,179,5.038509673053991
NNSH,7146,2024-04-03T00:01:11.460000,0.493,S,0.01,0.001303,4975,0.0164332798556059,2024-04-03 00:01:11.460,x,179,4.377452209712268
E077,7158,2024-04-03T00:01:11.980000,0.373,S,0.01,0.03334,4975,0.0904020272383548,2024-04-03 00:01:11.980,x,179,4.58029299455536
B045,7182,2024-04-03T00:01:12.230000,0.349,P,0.01,0.007469,4975,0.166500373206575,2024-04-03 00:01:12.230,U,179,5.204638056550614
TDCB,7441,2024-04-03T00:01:14.418000,0.521,S,0.01,0.002111,4975,0.052259095313396,2024-04-03 00:01:14.418,x,179,
E023,7390,2024-04-03T00:01:15.470000,0.518,S,0.01,0.01527,4975,0.0986495727868219,2024-04-03 00:01:15.470,x,179,4.83472516435373
YHNB,7620,2024-04-03T00:01:16.208000,0.408,S,0.01,0.001584,4975,0.0793528553764483,2024-04-03 00:01:16.208,x,179,
B215,7543,2024-04-03T00:01:16.750000,0.325,S,0.01,0.02352,4975,0.068237377900553,2024-04-03 00:01:16.750,x,179,4.881503902372777
YUS,7669,2024-04-03T00:01:16.830000,0.357,P,0.01,0.009628,4975,0.1178826517534837,2024-04-03 00:01:16.830,x,179,5.302562700817412
B189,7951,2024-04-03T00:01:20.420000,0.439,S,0.01,0.007527,4975,0.116702112905471,2024-04-03 00:01:20.420,x,179,4.883326054192677
B045,8241,2024-04-03T00:01:22.820000,0.407,S,0.01,0.01389,4975,0.0170694150059967,2024-04-03 00:01:22.820,x,179,5.204638056550614
SM02,8766,2024-04-03T00:01:29.300000,0.619,P,0.01,0.02712,-1,-1.0,2024-04-03 00:01:29.300,x,-1,
B138,9092,2024-04-03T00:01:30.970000,0.319,S,0.01,0.02443,4975,0.1063411633206941,2024-04-03 00:01:30.970,x,179,5.453410888298347
C024,9113,2024-04-03T00:01:32.100000,0.625,S,0.01,0.01622,4975,0.0331702178854219,2024-04-03 00:01:32.100,x,179,5.443284934283808
SM09,9440,2024-04-03T00:01:34.890000,0.362,S,0.01,0.04187,-1,-1.0,2024-04-03 00:01:34.890,x,-1,
SM39,9453,2024-04-03T00:01:34.980000,0.514,S,0.01,0.07521,-1,-1.0,2024-04-03 00:01:34.980,x,-1,
E023,9582,2024-04-03T00:01:37.390000,0.344,P,0.01,0.005635,-1,-1.0,2024-04-03 00:01:37.390,x,-1,
E023,10731,2024-04-03T00:01:48.880000,0.358,S,0.01,0.006577,-1,-1.0,2024-04-03 00:01:48.880,x,-1,
SM09,11645,2024-04-03T00:01:56.940000,0.361,P,0.01,0.083,10330,0.0002169605942676,2024-04-03 00:01:56.940,x,180,5.348331675855569
SM02,11550,2024-04-03T00:01:57.140000,0.578,P,0.01,0.03592,10330,0.0002339882414776,2024-04-03 00:01:57.140,x,180,5.133858553066036
SM06,11745,2024-04-03T00:01:57.550000,0.564,P,0.01,0.03253,10330,0.0086622309318991,2024-04-03 00:01:57.550,x,180,5.110111341739164
ESL,11810,2024-04-03T00:01:58.370000,0.58,P,0.01,0.06595,10330,0.01407484006987,2024-04-03 00:01:58.370,x,180,4.661553827119286
HOPB,11873,2024-04-03T00:01:58.733000,0.325,P,0.01,0.00246,10330,0.0136340775989121,2024-04-03 00:01:58.733,U,180,4.894839982061293
WUSB,12200,2024-04-03T00:02:02.008000,0.598,P,0.01,0.001881,10330,0.0100067624922845,2024-04-03 00:02:02.008,U,180,5.012211408495042
E077,12169,2024-04-03T00:02:02.090000,0.653,P,0.01,0.02013,10330,0.0070042882588202,2024-04-03 00:02:02.090,x,180,4.76411702385159
SM06,12274,2024-04-03T00:02:02.840000,0.309,S,0.01,0.02767,10330,0.01170535558429,2024-04-03 00:02:02.840,x,180,5.110111341739164
SM02,12131,2024-04-03T00:02:02.950000,0.632,S,0.01,0.03592,10330,0.0146653376935415,2024-04-03 00:02:02.950,x,180,5.133858553066036
SM39,12322,2024-04-03T00:02:03.670000,0.312,S,0.01,0.1573,10330,0.0076113520044639,2024-04-03 00:02:03.670,x,180,5.681194551906668
E023,12276,2024-04-03T00:02:04.330000,0.636,P,0.01,0.006783,10330,0.0132784919080246,2024-04-03 00:02:04.330,D,180,4.920300828511339
YHNB,12498,2024-04-03T00:02:04.988000,0.494,P,0.01,0.0008822,10330,0.0054579367170941,2024-04-03 00:02:04.988,D,180,4.788597089648139
B215,12380,2024-04-03T00:02:05.120000,0.63,P,0.01,0.009453,10330,0.0146741120233978,2024-04-03 00:02:05.120,D,180,5.141585202382787
GWUB,12546,2024-04-03T00:02:05.460000,0.502,P,0.01,0.002535,10330,0.0120387167904071,2024-04-03 00:02:05.460,U,180,4.953229222396846
B189,12474,2024-04-03T00:02:05.650000,0.318,P,0.01,0.004575,10330,0.0153723877462834,2024-04-03 00:02:05.650,U,180,4.8381884107609405
YUS,12656,2024-04-03T00:02:06.700000,0.403,P,0.01,0.006379,10330,0.0122488924374063,2024-04-03 00:02:06.700,D,180,5.1405613831739805
B071,12630,2024-04-03T00:02:07.100000,0.422,P,0.01,0.004678,10330,0.0076015157154156,2024-04-03 00:02:07.100,D,180,4.914279686283571
B045,12780,2024-04-03T00:02:08.210000,0.419,P,0.01,0.004324,10330,0.0097407668171307,2024-04-03 00:02:08.210,U,180,5.082053433855608
B068,12801,2024-04-03T00:02:08.340000,0.362,P,0.01,0.005306,10330,0.0099897432690351,2024-04-03 00:02:08.340,x,180,5.274181499766897
B138,12986,2024-04-03T00:02:09.910000,0.418,P,0.01,0.006869,10330,0.0091099315327807,2024-04-03 00:02:09.910,U,180,5.350216801978935
C024,12924,2024-04-03T00:02:10.210000,0.347,P,0.01,0.008238,10330,0.0076100022611216,2024-04-03 00:02:10.210,D,180,5.359069082636322
B090,12910,2024-04-03T00:02:10.350000,0.48,P,0.01,0.005906,10330,0.0092322171992294,2024-04-03 00:02:10.350,D,180,5.249899303646294
WPL,13326,2024-04-03T00:02:13.460000,0.356,S,0.01,0.006423,-1,-1.0,2024-04-03 00:02:13.460,x,-1,
B215,13397,2024-04-03T00:02:15.290000,0.372,S,0.01,0.02088,10330,0.0070278911550951,2024-04-03 00:02:15.290,x,180,5.141585202382787
E037,13576,2024-04-03T00:02:15.800000,0.382,S,0.01,0.01237,10330,0.0079063628285707,2024-04-03 00:02:15.800,x,180,5.259259212618368
YUS,13721,2024-04-03T00:02:17.350000,0.406,S,0.01,0.01237,10330,0.001102959241682,2024-04-03 00:02:17.350,x,180,5.1405613831739805
B071,13842,2024-04-03T00:02:19.220000,0.47,S,0.01,0.006582,10330,0.0046081030686588,2024-04-03 00:02:19.220,x,180,4.914279686283571
B068,14118,2024-04-03T00:02:21.510000,0.343,S,0.01,0.004809,10330,0.0091608563849411,2024-04-03 00:02:21.510,x,180,5.274181499766897
