station_id,phase_index,phase_time,phase_score,phase_type,dt_s,phase_amplitude,event_index,gamma_score,time,polarity,h3dd_event_index,magnitude
ESL,43019,2024-04-03T00:07:10.460000,0.356,P,0.01,0.01376,10335,0.0076113520044639,2024-04-03 00:07:10.460,x,185,3.5419844629639448
SM06,43120,2024-04-03T00:07:11.300000,0.855,S,0.01,0.01542,10335,0.0132784919080246,2024-04-03 00:07:11.300,x,185,3.4540844262607138
WUSB,43312,2024-04-03T00:07:13.128000,0.588,P,0.01,0.0003731,10335,0.0054579367170941,2024-04-03 00:07:13.128,U,185,3.715212754162482
SHUL,44640,2024-04-03T00:07:26.400000,0.848,P,0.01,0.001065,10336,0.0002169605942676,2024-04-03 00:07:26.400,U,186,3.912700013475408
ESL,44649,2024-04-03T00:07:26.760000,0.927,P,0.01,0.07792,10336,0.0002339882414776,2024-04-03 00:07:26.760,x,186,4.39947592241813
SM06,44678,2024-04-03T00:07:26.880000,0.809,P,0.01,0.01292,10336,0.0086622309318991,2024-04-03 00:07:26.880,D,186,3.984631880641409
EGC,20509,2024-04-03T00:07:27.090000,0.724,P,0.01,0.04444,10336,0.01407484006987,2024-04-03 00:07:27.090,x,186,4.213148190514654
EGFH,44799,2024-04-03T00:07:27.990000,0.701,P,0.01,0.0001307,10336,0.0136340775989121,2024-04-03 00:07:27.990,D,186,3.222610230902464
F002,34243,2024-04-03T00:07:28.430000,0.34,P,0.01,0.009214,10336,0.0100067624922845,2024-04-03 00:07:28.430,U,186,3.894318723874785
SM39,44808,2024-04-03T00:07:28.530000,0.426,P,0.01,0.04101,10336,0.0070042882588202,2024-04-03 00:07:28.530,x,186,5.077241514573285
SHUL,44970,2024-04-03T00:07:29.700000,0.556,S,0.01,0.001065,10336,0.01170535558429,2024-04-03 00:07:29.700,x,186,3.912700013475408
ESL,44987,2024-04-03T00:07:30.140000,0.483,S,0.01,0.07792,10336,0.0146653376935415,2024-04-03 00:07:30.140,x,186,4.39947592241813
SM06,45035,2024-04-03T00:07:30.450000,0.364,S,0.01,0.01292,10336,0.0076113520044639,2024-04-03 00:07:30.450,x,186,3.984631880641409
EGC,20860,2024-04-03T00:07:30.600000,0.641,S,0.01,0.04444,10336,0.0132784919080246,2024-04-03 00:07:30.600,x,186,4.213148190514654
EGFH,45222,2024-04-03T00:07:32.220000,0.416,S,0.01,0.0001307,10336,0.0054579367170941,2024-04-03 00:07:32.220,x,186,3.222610230902464
YULB,45272,2024-04-03T00:07:32.728000,0.464,P,0.01,0.000386,10336,0.0146741120233978,2024-04-03 00:07:32.728,U,186,3.737524741468514
SM09,45285,2024-04-03T00:07:33.340000,0.344,P,0.01,0.0276,-1,-1.0,2024-04-03 00:07:33.340,x,-1,
F002,34763,2024-04-03T00:07:33.630000,0.444,S,0.01,0.009214,10336,0.0120387167904071,2024-04-03 00:07:33.630,x,186,3.894318723874785
WPL,45388,2024-04-03T00:07:34.080000,0.582,P,0.01,0.002167,10336,0.0153723877462834,2024-04-03 00:07:34.080,x,186,4.045522556724444
B148,45334,2024-04-03T00:07:34.420000,0.315,P,0.01,0.00432,10336,0.0122488924374063,2024-04-03 00:07:34.420,x,186,4.134384435464265
SML,45379,2024-04-03T00:07:34.520000,0.702,P,0.01,0.003672,10336,0.0076015157154156,2024-04-03 00:07:34.520,D,186,4.38394893575024
B138,45486,2024-04-03T00:07:34.910000,0.317,S,0.01,0.003477,10335,0.0146741120233978,2024-04-03 00:07:34.910,x,185,4.560002232128456
YUS,45529,2024-04-03T00:07:35.430000,0.548,P,0.01,0.0067,10336,0.0097407668171307,2024-04-03 00:07:35.430,x,186,4.637032364578374
ALS,45632,2024-04-03T00:07:37.480000,0.548,P,0.01,0.001336,10336,0.0099897432690351,2024-04-03 00:07:37.480,U,186,4.379798559040472
SM39,45846,2024-04-03T00:07:38.910000,0.722,P,0.01,0.1141,-1,-1.0,2024-04-03 00:07:38.910,x,-1,
SM02,45728,2024-04-03T00:07:38.920000,0.713,P,0.01,0.02903,-1,-1.0,2024-04-03 00:07:38.920,x,-1,
SM09,45853,2024-04-03T00:07:39.020000,0.868,P,0.01,0.1075,-1,-1.0,2024-04-03 00:07:39.020,x,-1,
SM06,45932,2024-04-03T00:07:39.420000,0.714,P,0.01,0.07294,-1,-1.0,2024-04-03 00:07:39.420,x,-1,
HGSD,45979,2024-04-03T00:07:39.790000,0.329,S,0.01,0.001322,-1,-1.0,2024-04-03 00:07:39.790,x,-1,
HOPB,45994,2024-04-03T00:07:39.943000,0.376,P,0.01,0.0008644,-1,-1.0,2024-04-03 00:07:39.943,x,-1,
ESL,46093,2024-04-03T00:07:41.200000,0.871,P,0.01,0.02915,-1,-1.0,2024-04-03 00:07:41.200,x,-1,
SM39,46099,2024-04-03T00:07:41.440000,0.835,S,0.01,0.1141,-1,-1.0,2024-04-03 00:07:41.440,x,-1,
ECB,46079,2024-04-03T00:07:41.680000,0.679,S,0.01,0.004934,10336,0.0091099315327807,2024-04-03 00:07:41.680,x,186,4.078919850471264
SM09,46143,2024-04-03T00:07:41.920000,0.496,S,0.01,0.1075,-1,-1.0,2024-04-03 00:07:41.920,x,-1,
WPL,46194,2024-04-03T00:07:42.140000,0.47,S,0.01,0.002167,10336,0.0076100022611216,2024-04-03 00:07:42.140,x,186,4.045522556724444
SM06,46217,2024-04-03T00:07:42.270000,0.867,S,0.01,0.07294,-1,-1.0,2024-04-03 00:07:42.270,x,-1,
YUS,46390,2024-04-03T00:07:44.040000,0.312,S,0.01,0.007072,10336,0.0092322171992294,2024-04-03 00:07:44.040,x,186,4.637032364578374
SM39,46609,2024-04-03T00:07:46.540000,0.554,P,0.01,0.06025,-1,-1.0,2024-04-03 00:07:46.540,x,-1,
SM02,46497,2024-04-03T00:07:46.610000,0.599,P,0.01,0.0269,-1,-1.0,2024-04-03 00:07:46.610,x,-1,
SM06,46732,2024-04-03T00:07:47.420000,0.683,P,0.01,0.03675,-1,-1.0,2024-04-03 00:07:47.420,x,-1,
CHK,46806,2024-04-03T00:07:48.270000,0.459,S,0.01,0.008279,10336,0.0070278911550951,2024-04-03 00:07:48.270,x,186,4.2620278802822265
SM39,46945,2024-04-03T00:07:49.900000,0.551,S,0.01,0.05623,-1,-1.0,2024-04-03 00:07:49.900,x,-1,
B090,47056,2024-04-03T00:07:51.810000,0.518,S,0.01,0.002771,10336,0.0079063628285707,2024-04-03 00:07:51.810,x,186,4.491045912281876
E037,47231,2024-04-03T00:07:52.350000,0.394,P,0.01,0.003783,-1,-1.0,2024-04-03 00:07:52.350,x,-1,
F002,36642,2024-04-03T00:07:52.420000,0.439,P,0.01,0.004681,-1,-1.0,2024-04-03 00:07:52.420,x,-1,
C024,47180,2024-04-03T00:07:52.770000,0.688,S,0.01,0.004326,10336,0.001102959241682,2024-04-03 00:07:52.770,x,186,4.579578063651183
SM02,47320,2024-04-03T00:07:54.840000,0.492,P,0.01,0.02285,-1,-1.0,2024-04-03 00:07:54.840,x,-1,
SM09,47988,2024-04-03T00:08:00.370000,0.447,S,0.01,0.03119,-1,-1.0,2024-04-03 00:08:00.370,x,-1,
SM39,47998,2024-04-03T00:08:00.430000,0.448,S,0.01,0.09218,-1,-1.0,2024-04-03 00:08:00.430,x,-1,
SM02,47883,2024-04-03T00:08:00.470000,0.601,S,0.01,0.02285,-1,-1.0,2024-04-03 00:08:00.470,x,-1,
F002,37560,2024-04-03T00:08:01.600000,0.335,P,0.01,0.006009,-1,-1.0,2024-04-03 00:08:01.600,x,-1,
HOPB,48270,2024-04-03T00:08:02.703000,0.452,S,0.01,0.0008901,-1,-1.0,2024-04-03 00:08:02.703,x,-1,
F002,38346,2024-04-03T00:08:09.460000,0.386,S,0.01,0.006009,-1,-1.0,2024-04-03 00:08:09.460,x,-1,
SM06,49336,2024-04-03T00:08:13.460000,0.875,P,0.01,0.01589,-1,-1.0,2024-04-03 00:08:13.460,x,-1,
ESL,49340,2024-04-03T00:08:13.670000,0.941,P,0.01,0.03946,-1,-1.0,2024-04-03 00:08:13.670,x,-1,
SM39,49467,2024-04-03T00:08:15.120000,0.417,P,0.01,0.02602,-1,-1.0,2024-04-03 00:08:15.120,x,-1,
SM09,49486,2024-04-03T00:08:15.350000,0.746,P,0.01,0.01387,-1,-1.0,2024-04-03 00:08:15.350,x,-1,
F002,38941,2024-04-03T00:08:15.410000,0.372,P,0.01,0.004216,-1,-1.0,2024-04-03 00:08:15.410,x,-1,
ESL,49640,2024-04-03T00:08:16.670000,0.753,S,0.01,0.03946,-1,-1.0,2024-04-03 00:08:16.670,x,-1,
SM06,49681,2024-04-03T00:08:16.910000,0.453,S,0.01,0.01316,-1,-1.0,2024-04-03 00:08:16.910,x,-1,
SM02,49762,2024-04-03T00:08:19.260000,0.54,P,0.01,0.007127,-1,-1.0,2024-04-03 00:08:19.260,x,-1,
SM39,49946,2024-04-03T00:08:19.910000,0.435,S,0.01,0.02602,-1,-1.0,2024-04-03 00:08:19.910,x,-1,
ESL,51032,2024-04-03T00:08:30.590000,0.506,P,0.01,0.009066,-1,-1.0,2024-04-03 00:08:30.590,x,-1,
SM39,51047,2024-04-03T00:08:30.920000,0.499,P,0.01,0.01883,-1,-1.0,2024-04-03 00:08:30.920,x,-1,
SM39,51242,2024-04-03T00:08:32.870000,0.596,S,0.01,0.01883,-1,-1.0,2024-04-03 00:08:32.870,x,-1,
TDCB,51331,2024-04-03T00:08:33.318000,0.314,P,0.01,0.0003154,-1,-1.0,2024-04-03 00:08:33.318,x,-1,
E037,51872,2024-04-03T00:08:38.760000,0.302,P,0.01,0.003282,-1,-1.0,2024-04-03 00:08:38.760,x,-1,
SM09,52543,2024-04-03T00:08:45.920000,0.792,P,0.01,0.102,10337,0.0002169605942676,2024-04-03 00:08:45.920,x,187,4.4837370278478375
SM39,52554,2024-04-03T00:08:45.990000,0.817,P,0.01,0.1603,10337,0.0002339882414776,2024-04-03 00:08:45.990,x,187,4.887363798634084
SM02,52443,2024-04-03T00:08:46.070000,0.84,P,0.01,0.08783,10337,0.0086622309318991,2024-04-03 00:08:46.070,x,187,4.690145872295068
HWA,52613,2024-04-03T00:08:46.130000,0.724,P,0.01,0.0006583,10337,0.01407484006987,2024-04-03 00:08:46.130,U,187,3.875968895452013
SM06,52651,2024-04-03T00:08:46.610000,0.845,P,0.01,0.0792,10337,0.0136340775989121,2024-04-03 00:08:46.610,x,187,4.500684848247182
HOPB,52816,2024-04-03T00:08:48.163000,0.554,P,0.01,0.0009393,10337,0.0100067624922845,2024-04-03 00:08:48.163,D,187,4.300607354173649
SHUL,52823,2024-04-03T00:08:48.230000,0.472,P,0.01,0.0008191,10337,0.0070042882588202,2024-04-03 00:08:48.230,U,187,4.0533294810000005
ESL,52824,2024-04-03T00:08:48.510000,0.604,P,0.01,0.01194,10337,0.01170535558429,2024-04-03 00:08:48.510,x,187,4.166876641517559
EGC,28726,2024-04-03T00:08:49.260000,0.602,P,0.01,0.01783,10337,0.0146653376935415,2024-04-03 00:08:49.260,x,187,4.578436309289879
B071,52906,2024-04-03T00:08:49.860000,0.322,S,0.01,0.001343,-1,-1.0,2024-04-03 00:08:49.860,x,-1,
SM09,52970,2024-04-03T00:08:50.190000,0.79,S,0.01,0.102,10337,0.0076113520044639,2024-04-03 00:08:50.190,x,187,4.4837370278478375
SM39,52979,2024-04-03T00:08:50.240000,0.671,S,0.01,0.1603,10337,0.0132784919080246,2024-04-03 00:08:50.240,x,187,4.887363798634084
SM02,52862,2024-04-03T00:08:50.260000,0.899,S,0.01,0.08783,10337,0.0054579367170941,2024-04-03 00:08:50.260,x,187,4.690145872295068
EGFH,53041,2024-04-03T00:08:50.410000,0.353,P,0.01,0.0001183,10337,0.0146741120233978,2024-04-03 00:08:50.410,D,187,3.165672148889174
HWA,53043,2024-04-03T00:08:50.430000,0.508,S,0.01,0.0006583,10337,0.0120387167904071,2024-04-03 00:08:50.430,x,187,3.875968895452013
ESL,53072,2024-04-03T00:08:50.990000,0.607,P,0.01,0.02826,-1,-1.0,2024-04-03 00:08:50.990,x,-1,
F002,42505,2024-04-03T00:08:51.050000,0.434,P,0.01,0.005646,10337,0.0153723877462834,2024-04-03 00:08:51.050,x,187,4.331713596688967
SM06,53117,2024-04-03T00:08:51.270000,0.451,S,0.01,0.0792,10337,0.0122488924374063,2024-04-03 00:08:51.270,x,187,4.500684848247182
NNSH,53208,2024-04-03T00:08:52.080000,0.637,P,0.01,0.0002777,10337,0.0076015157154156,2024-04-03 00:08:52.080,U,187,3.907154641596275
E077,53210,2024-04-03T00:08:52.500000,0.818,P,0.01,0.009848,10337,0.0097407668171307,2024-04-03 00:08:52.500,x,187,4.43613026943669
E023,53294,2024-04-03T00:08:54.510000,0.531,P,0.01,0.003481,10337,0.0099897432690351,2024-04-03 00:08:54.510,x,187,4.330158544878583
B215,53483,2024-04-03T00:08:56.150000,0.325,P,0.01,0.003124,10337,0.0091099315327807,2024-04-03 00:08:56.150,U,187,4.389943048654941
B045,53878,2024-04-03T00:08:59.190000,0.39,P,0.01,0.001751,10337,0.0076100022611216,2024-04-03 00:08:59.190,x,187,4.713932927021446
F002,43372,2024-04-03T00:08:59.720000,0.471,S,0.01,0.008335,10337,0.0092322171992294,2024-04-03 00:08:59.720,x,187,4.331713596688967
E077,54049,2024-04-03T00:09:00.890000,0.348,S,0.01,0.009206,10337,0.0070278911550951,2024-04-03 00:09:00.890,x,187,4.43613026943669
WUSB,54099,2024-04-03T00:09:00.998000,0.311,P,0.01,0.0005487,10338,0.0002169605942676,2024-04-03 00:09:00.998,U,188,4.205099454728786
HWA,54219,2024-04-03T00:09:02.190000,0.329,P,0.01,0.001041,10338,0.0002339882414776,2024-04-03 00:09:02.190,D,188,4.549231541457944
SM02,54068,2024-04-03T00:09:02.320000,0.659,P,0.01,0.05589,10338,0.0086622309318991,2024-04-03 00:09:02.320,x,188,4.776526782343249
SM39,54195,2024-04-03T00:09:02.400000,0.305,P,0.01,0.1195,10338,0.01407484006987,2024-04-03 00:09:02.400,x,188,5.330334090422163
SM09,54191,2024-04-03T00:09:02.400000,0.704,P,0.01,0.07519,10338,0.0136340775989121,2024-04-03 00:09:02.400,x,188,5.056851177829898
WPL,54322,2024-04-03T00:09:03.420000,0.657,P,0.01,0.005093,10338,0.0100067624922845,2024-04-03 00:09:03.420,U,188,3.8841907861209455
B148,54299,2024-04-03T00:09:04.070000,0.685,P,0.01,0.006579,10338,0.0070042882588202,2024-04-03 00:09:04.070,U,188,4.212897390530848
WCS,54411,2024-04-03T00:09:04.110000,0.312,P,0.01,0.0003381,10338,0.01170535558429,2024-04-03 00:09:04.110,D,188,3.5030736315556004
E023,54287,2024-04-03T00:09:04.440000,0.63,S,0.01,0.004054,10337,0.0079063628285707,2024-04-03 00:09:04.440,x,187,4.330158544878583
YUS,54597,2024-04-03T00:09:06.110000,0.441,P,0.01,0.007311,-1,-1.0,2024-04-03 00:09:06.110,x,-1,
B071,54556,2024-04-03T00:09:06.360000,0.642,P,0.01,0.003048,10338,0.0146653376935415,2024-04-03 00:09:06.360,x,188,4.107392022667172
SM02,54559,2024-04-03T00:09:07.230000,0.613,S,0.01,0.04143,10338,0.0076113520044639,2024-04-03 00:09:07.230,x,188,4.776526782343249
SM39,54695,2024-04-03T00:09:07.400000,0.715,S,0.01,0.1195,10338,0.0132784919080246,2024-04-03 00:09:07.400,x,188,5.330334090422163
SM09,54708,2024-04-03T00:09:07.570000,0.568,S,0.01,0.07519,10338,0.0054579367170941,2024-04-03 00:09:07.570,x,188,5.056851177829898
B045,54737,2024-04-03T00:09:07.780000,0.429,P,0.01,0.003514,10338,0.0146741120233978,2024-04-03 00:09:07.780,x,188,4.404729700195792
B068,54757,2024-04-03T00:09:07.900000,0.801,P,0.01,0.002693,10338,0.0120387167904071,2024-04-03 00:09:07.900,x,188,4.174410568535476
ESL,54857,2024-04-03T00:09:08.840000,0.322,S,0.01,0.08182,10338,0.0153723877462834,2024-04-03 00:09:08.840,x,188,4.5501972413150895
B138,54934,2024-04-03T00:09:09.390000,0.379,P,0.01,0.004438,10338,0.0122488924374063,2024-04-03 00:09:09.390,x,188,4.3984724040720415
B090,54821,2024-04-03T00:09:09.460000,0.341,P,0.01,0.002036,10338,0.0076015157154156,2024-04-03 00:09:09.460,x,188,4.256490693959384
EOS3,55379,2024-04-03T00:09:13.790000,0.57,S,0.01,0.0001117,-1,-1.0,2024-04-03 00:09:13.790,x,-1,
EDH,55432,2024-04-03T00:09:14.320000,0.337,P,0.01,0.0001294,10338,0.0097407668171307,2024-04-03 00:09:14.320,U,188,3.9528767173336297
YUS,55731,2024-04-03T00:09:17.450000,0.425,S,0.01,0.01547,10338,0.0099897432690351,2024-04-03 00:09:17.450,x,188,4.870166853215537
B071,55989,2024-04-03T00:09:20.690000,0.531,S,0.01,0.004891,-1,-1.0,2024-04-03 00:09:20.690,x,-1,
SM06,56234,2024-04-03T00:09:22.440000,0.342,P,0.01,0.02183,-1,-1.0,2024-04-03 00:09:22.440,x,-1,
SM02,56274,2024-04-03T00:09:24.380000,0.581,S,0.01,0.02687,-1,-1.0,2024-04-03 00:09:24.380,x,-1,
SM39,56401,2024-04-03T00:09:24.460000,0.721,S,0.01,0.1155,-1,-1.0,2024-04-03 00:09:24.460,x,-1,
SM09,56419,2024-04-03T00:09:24.680000,0.553,S,0.01,0.04414,-1,-1.0,2024-04-03 00:09:24.680,x,-1,
SM06,56497,2024-04-03T00:09:25.070000,0.454,S,0.01,0.01355,-1,-1.0,2024-04-03 00:09:25.070,x,-1,
CHK,56577,2024-04-03T00:09:25.980000,0.566,S,0.01,0.01322,10338,0.0091099315327807,2024-04-03 00:09:25.980,x,188,4.894698597796164
B189,57268,2024-04-03T00:09:33.590000,0.355,S,0.01,0.002159,-1,-1.0,2024-04-03 00:09:33.590,x,-1,
HOPB,57558,2024-04-03T00:09:35.583000,0.907,P,0.01,0.009609,10339,0.0002169605942676,2024-04-03 00:09:35.583,D,189,5.165359418049204
SM39,57611,2024-04-03T00:09:36.560000,0.861,P,0.01,0.1023,10339,0.0002339882414776,2024-04-03 00:09:36.560,U,189,5.029299919216463
SM09,57627,2024-04-03T00:09:36.760000,0.891,P,0.01,0.231,10339,0.0086622309318991,2024-04-03 00:09:36.760,x,189,5.170853245824791
SM02,57541,2024-04-03T00:09:37.050000,0.584,P,0.01,0.03412,10339,0.01407484006987,2024-04-03 00:09:37.050,x,189,4.701244835427536
HWA,57744,2024-04-03T00:09:37.440000,0.498,P,0.01,0.0005797,10339,0.0136340775989121,2024-04-03 00:09:37.440,D,189,4.063873354484248
SM06,57794,2024-04-03T00:09:38.040000,0.772,P,0.01,0.03767,10339,0.0100067624922845,2024-04-03 00:09:38.040,x,189,4.653468767694482
HOPB,57922,2024-04-03T00:09:39.223000,0.829,S,0.01,0.009609,10339,0.0070042882588202,2024-04-03 00:09:39.223,x,189,5.165359418049204
LATB,57960,2024-04-03T00:09:39.608000,0.87,P,0.01,0.00213,10339,0.01170535558429,2024-04-03 00:09:39.608,D,189,5.136171701249363
NNSH,57970,2024-04-03T00:09:39.700000,0.828,P,0.01,0.0004051,10339,0.0146653376935415,2024-04-03 00:09:39.700,D,189,4.512586888793184
E077,57952,2024-04-03T00:09:39.920000,0.822,P,0.01,0.05403,10339,0.0076113520044639,2024-04-03 00:09:39.920,x,189,4.988319186553513
NDS,58022,2024-04-03T00:09:40.220000,0.401,P,0.01,0.0008905,10339,0.0132784919080246,2024-04-03 00:09:40.220,U,189,4.406175740115044
ESL,58013,2024-04-03T00:09:40.400000,0.452,P,0.01,0.02578,10339,0.0054579367170941,2024-04-03 00:09:40.400,x,189,4.449027186309038
SM39,58091,2024-04-03T00:09:41.360000,0.698,S,0.01,0.1023,10339,0.0146741120233978,2024-04-03 00:09:41.360,x,189,5.029299919216463
E023,57999,2024-04-03T00:09:41.560000,0.449,P,0.01,0.04045,10339,0.0120387167904071,2024-04-03 00:09:41.560,U,189,4.942104446151276
SM09,58124,2024-04-03T00:09:41.730000,0.509,S,0.01,0.231,10339,0.0153723877462834,2024-04-03 00:09:41.730,x,189,5.170853245824791
SM02,58060,2024-04-03T00:09:42.240000,0.681,S,0.01,0.03412,10339,0.0122488924374063,2024-04-03 00:09:42.240,x,189,4.701244835427536
E037,58226,2024-04-03T00:09:42.300000,0.586,P,0.01,0.04255,10339,0.0076015157154156,2024-04-03 00:09:42.300,x,189,5.1731180580135385
TDCB,58248,2024-04-03T00:09:42.488000,0.764,P,0.01,0.0005236,10339,0.0097407668171307,2024-04-03 00:09:42.488,U,189,4.566462979610396
E004,58220,2024-04-03T00:09:42.500000,0.712,P,0.01,0.03331,10339,0.0099897432690351,2024-04-03 00:09:42.500,x,189,5.113240554778838
HWA,58270,2024-04-03T00:09:42.700000,0.308,S,0.01,0.0005797,10339,0.0091099315327807,2024-04-03 00:09:42.700,x,189,4.063873354484248
YHNB,58285,2024-04-03T00:09:42.858000,0.787,P,0.01,0.0009274,10339,0.0076100022611216,2024-04-03 00:09:42.858,U,189,5.004116922908748
FUSB,58287,2024-04-03T00:09:42.878000,0.328,P,0.01,0.0004244,10339,0.0092322171992294,2024-04-03 00:09:42.878,D,189,4.398928483699362
B215,58159,2024-04-03T00:09:42.910000,0.709,P,0.01,0.04232,10339,0.0070278911550951,2024-04-03 00:09:42.910,U,189,5.155147633219981
EOS3,58317,2024-04-03T00:09:43.170000,0.628,P,0.01,5.785e-05,10339,0.0079063628285707,2024-04-03 00:09:43.170,U,189,4.789260146123274
SM06,58403,2024-04-03T00:09:44.130000,0.372,S,0.01,0.03398,10339,0.001102959241682,2024-04-03 00:09:44.130,x,189,4.653468767694482
GWUB,58447,2024-04-03T00:09:44.470000,0.663,P,0.01,0.0007581,10339,0.0046081030686588,2024-04-03 00:09:44.470,D,189,5.010552210362735
WPL,58505,2024-04-03T00:09:45.250000,0.347,P,0.01,0.004341,10339,0.0091608563849411,2024-04-03 00:09:45.250,x,189,4.587045092855647
LATB,58583,2024-04-03T00:09:45.838000,0.43,S,0.01,0.00213,10339,0.0011200119261614,2024-04-03 00:09:45.838,x,189,5.136171701249363
NNSH,58595,2024-04-03T00:09:45.950000,0.464,S,0.01,0.0004051,10339,0.0118442866500036,2024-04-03 00:09:45.950,x,189,4.512586888793184
NFF,58567,2024-04-03T00:09:45.970000,0.459,P,0.01,0.000429,10339,0.0077121947032055,2024-04-03 00:09:45.970,U,189,4.340095771005609
E077,58618,2024-04-03T00:09:46.580000,0.531,S,0.01,0.05403,10339,0.0001023110433199,2024-04-03 00:09:46.580,x,189,4.988319186553513
NDS,58694,2024-04-03T00:09:46.940000,0.604,S,0.01,0.0008905,10339,0.009051603223664,2024-04-03 00:09:46.940,x,189,4.406175740115044
B068,58883,2024-04-03T00:09:49.160000,0.316,P,0.01,0.002901,10339,0.0096799593915408,2024-04-03 00:09:49.160,x,189,4.787548107871325
E023,58759,2024-04-03T00:09:49.160000,0.384,S,0.01,0.04045,10339,0.0003338628089116,2024-04-03 00:09:49.160,x,189,4.942104446151276
TDCB,59002,2024-04-03T00:09:50.028000,0.635,S,0.01,0.0005236,10339,0.0003048720345837,2024-04-03 00:09:50.028,x,189,4.566462979610396
YHNB,59112,2024-04-03T00:09:51.128000,0.641,S,0.01,0.0009274,10339,0.0033886604497361,2024-04-03 00:09:51.128,x,189,5.004116922908748
E004,59118,2024-04-03T00:09:51.480000,0.435,S,0.01,0.03331,10339,0.0011266792637836,2024-04-03 00:09:51.480,x,189,5.113240554778838
B215,59043,2024-04-03T00:09:51.750000,0.304,S,0.01,0.04232,10339,0.0046598075646268,2024-04-03 00:09:51.750,x,189,5.155147633219981
GWUB,59360,2024-04-03T00:09:53.600000,0.301,S,0.01,0.0007581,10339,0.0007712220785895,2024-04-03 00:09:53.600,x,189,5.010552210362735
SM39,59327,2024-04-03T00:09:53.720000,0.39,P,0.01,0.04817,-1,-1.0,2024-04-03 00:09:53.720,x,-1,
F002,48777,2024-04-03T00:09:53.770000,0.415,S,0.01,0.006374,10339,0.0051398146312887,2024-04-03 00:09:53.770,x,189,4.555991280320695
