station_id,phase_index,phase_time,phase_score,phase_type,dt_s,phase_amplitude,event_index,gamma_score,time,polarity,h3dd_event_index,magnitude
SM02,59452,2024-04-03T00:09:56.160000,0.523,P,0.01,0.01464,10340,0.0002169605942676,2024-04-03 00:09:56.160,x,190,4.699742644579098
SM09,59569,2024-04-03T00:09:56.180000,0.668,P,0.01,0.02967,10340,0.0002339882414776,2024-04-03 00:09:56.180,x,190,4.726459300158249
HWA,59621,2024-04-03T00:09:56.210000,0.457,P,0.01,0.0006001,10340,0.0086622309318991,2024-04-03 00:09:56.210,U,190,4.34741384893757
SM06,59637,2024-04-03T00:09:56.470000,0.452,P,0.01,0.01762,10340,0.01407484006987,2024-04-03 00:09:56.470,x,190,4.677453380447664
ESL,59669,2024-04-03T00:09:56.960000,0.425,P,0.01,0.06095,10340,0.0136340775989121,2024-04-03 00:09:56.960,x,190,4.339001739474869
HOPB,59707,2024-04-03T00:09:57.073000,0.361,P,0.01,0.0004697,10340,0.0100067624922845,2024-04-03 00:09:57.073,U,190,4.462069858470414
B189,59688,2024-04-03T00:09:57.790000,0.519,S,0.01,0.003945,10339,0.0030307320896696,2024-04-03 00:09:57.790,x,189,4.674364773015977
E077,59948,2024-04-03T00:09:59.880000,0.513,P,0.01,0.01543,10340,0.0070042882588202,2024-04-03 00:09:59.880,x,190,4.3563231344689
