station_id,phase_time,total_seconds,phase_type,dist,azimuth,takeoff_angle,elevation,h3dd_event_index,magnitude
TATO,2024-04-01T10:00:05.123,36005.123,P,25.5,45,120,0.825,0,3.4
HGSD,2024-04-01T10:00:06.234,36006.234,P,35.2,90,115,1.080,0,3.6
YULB,2024-04-01T10:00:07.345,36007.345,P,45.1,135,110,0.030,0,3.5
TATO,2024-04-01T11:30:10.123,41410.123,P,30.5,50,118,0.825,1,4.1
HGSD,2024-04-01T11:30:11.234,41411.234,P,40.2,95,113,1.080,1,4.3
